BEIJING 1               
1 28890U 05043A   23326.46814219  .00000535  00000+0  11603-3 0  9996
2 28890  98.1782  86.2198 0014550 341.2208  18.8455 14.62016642963543
HJ-1A                   
1 33320U 08041A   23326.45137340  .00001623  00000+0  22601-3 0  9992
2 33320  97.6380 338.8498 0019889 333.1669  26.8512 14.78921768819640
HJ-1B                   
1 33321U 08041B   23326.45085009  .00001387  00000+0  18992-3 0  9992
2 33321  97.6371 343.3186 0039281  16.8083 343.4421 14.79476822819654
YAOGAN 4                
1 33446U 08061A   23326.36816123  .00001691  00000+0  23598-3 0  9997
2 33446  97.8638 257.5433 0014198 237.9217 122.0616 14.78923319806836
DEIMOS-1                
1 35681U 09041A   23326.47495444  .00000984  00000+0  16109-3 0  9994
2 35681  97.6763 154.6326 0001653  31.7784 328.3524 14.72824472768734
UK-DMC 2                
1 35683U 09041C   23326.46525952  .00001308  00000+0  21300-3 0  9993
2 35683  97.7526 118.1669 0001490  80.5623 279.5754 14.72592929768430
RISAT 1                 
1 38248U 12017A   23326.04414492  .00010198  00000+0  48999-3 0  9990
2 38248  97.5375 338.3995 0001583 234.5139 125.5947 15.19023140637956
DMC3-FM1                
1 40715U 15032A   23326.47194505  .00001038  00000+0  13380-3 0  9998
2 40715  97.7755 206.1696 0004415 248.1859 111.8885 14.83103218450787
DMC3-FM2                
1 40716U 15032B   23326.49502859  .00001044  00000+0  13459-3 0  9990
2 40716  97.7806 207.1276 0006252 253.6201 106.4325 14.83069763450788
DMC3-FM3                
1 40717U 15032C   23326.44940968  .00001068  00000+0  13736-3 0  9997
2 40717  97.7851 208.2445 0007782 251.6637 108.3731 14.83121197450781
